GLOBALSTAR M035 [-]     
1 25851U 99037A   24020.54760274 -.00000020  00000+0  16584-2 0  9990
2 25851  51.9950 120.4143 0013543 224.9337 228.0081 11.04528342 39501
GLOBALSTAR M032 [-]     
1 25852U 99037B   24020.27293960 -.00000040  00000+0  87084-3 0  9990
2 25852  51.9988 341.6884 0009569  21.0352 339.0840 11.19049953 77250
GLOBALSTAR M051 [-]     
1 25853U 99037C   24020.79076869 -.00000042  00000+0  73254-3 0  9991
2 25853  51.9756 199.3845 0002153  47.0797 313.0194 11.42195975 73748
GLOBALSTAR M030 [-]     
1 25854U 99037D   24020.49740109 -.00000079  00000+0 -78789-4 0  9994
2 25854  51.9897  38.8588 0004269 202.8644 157.1983 11.55086908 90783
GLOBALSTAR M048 [-]     
1 25872U 99041A   24020.51597179 -.00000074  00000+0 -10432-3 0  9994
2 25872  51.9368 115.2167 0012864  19.4816  68.7828 11.33842605 66713
GLOBALSTAR M026 [-]     
1 25873U 99041B   24020.03101045 -.00000057  00000+0  27204-3 0  9990
2 25873  51.9980 244.9491 0002132 100.7661  49.6649 11.06835331 91550
GLOBALSTAR M043 [-]     
1 25874U 99041C   24019.78248947 -.00000044  00000+0  71291-3 0  9995
2 25874  51.9358 204.1004 0013443 151.5258 303.4141 11.25674245 64948
GLOBALSTAR M028 [-]     
1 25875U 99041D   24020.15385195 -.00000063  00000+0  24539-3 0  9990
2 25875  51.9630 285.7790 0064266  35.4559 325.0549 12.50548510125867
